start=new Date('2022-10-17T00:00:00.000Z').valueOf();
sats=[{"BSTAR":"0.00001626300000","ARG_OF_PERICENTER":"89.9713","EPOCH":"2022-10-16T18:58:14.384064","RA_OF_ASC_NODE":"67.7544","OBJECT_NAME":"STARLINK-2378","GP_ID":"215346525","PERIOD":"95.592","INCLINATION":"53.0558","DECAY_DATE":null,"LAUNCH_DATE":"2021-03-14","MEAN_MOTION_DOT":"-0.00000039","MEAN_MOTION":"15.06398255","PERIAPSIS":"546.339","OBJECT_TYPE":"PAYLOAD","EPHEMERIS_TYPE":"0","TLE_LINE2":"2 47916  53.0558  67.7544 0001271  89.9713 270.1421 15.06398255 89431","MEAN_ELEMENT_THEORY":"SGP4","APOAPSIS":"548.099","ECCENTRICITY":"0.00012710","CLASSIFICATION_TYPE":"U","SEMIMAJOR_AXIS":"6925.354","SITE":"AFETR","FILE":"3617955","TLE_LINE1":"1 47916U 21021BJ  22289.79044426 -.00000039  00000-0  16263-4 0  9997","ELEMENT_SET_NO":"999","NORAD_CAT_ID":"47916","OBJECT_ID":"2021-021BJ","TIME_SYSTEM":"UTC","MEAN_ANOMALY":"270.1421","MEAN_MOTION_DDOT":"0.0000000000000","RCS_SIZE":"LARGE","REF_FRAME":"TEME","REV_AT_EPOCH":"8943","COUNTRY_CODE":"US","CENTER_NAME":"EARTH"},{"EPOCH":"2022-10-17T03:05:13.306272","BSTAR":"0.00001379800000","ARG_OF_PERICENTER":"112.7524","RA_OF_ASC_NODE":"76.2162","PERIOD":"95.592","OBJECT_NAME":"STARLINK-2397","GP_ID":"215351387","INCLINATION":"53.0547","LAUNCH_DATE":"2021-03-14","DECAY_DATE":null,"MEAN_MOTION":"15.06401948","MEAN_MOTION_DOT":"-0.00000076","EPHEMERIS_TYPE":"0","OBJECT_TYPE":"PAYLOAD","PERIAPSIS":"546.205","TLE_LINE2":"2 47917  53.0547  76.2162 0001448 112.7524 247.3618 15.06401948 88888","MEAN_ELEMENT_THEORY":"SGP4","APOAPSIS":"548.210","ECCENTRICITY":"0.00014480","SITE":"AFETR","SEMIMAJOR_AXIS":"6925.343","CLASSIFICATION_TYPE":"U","ELEMENT_SET_NO":"999","NORAD_CAT_ID":"47917","TLE_LINE1":"1 47917U 21021BK  22290.12862623 -.00000076  00000-0  13798-4 0  9995","FILE":"3617992","TIME_SYSTEM":"UTC","OBJECT_ID":"2021-021BK","RCS_SIZE":"LARGE","REF_FRAME":"TEME","MEAN_MOTION_DDOT":"0.0000000000000","MEAN_ANOMALY":"247.3618","COUNTRY_CODE":"US","REV_AT_EPOCH":"8888","CENTER_NAME":"EARTH"},{"REV_AT_EPOCH":"8931","COUNTRY_CODE":"US","CENTER_NAME":"EARTH","OBJECT_ID":"2021-021BL","TIME_SYSTEM":"UTC","MEAN_ANOMALY":"258.2147","MEAN_MOTION_DDOT":"0.0000000000000","RCS_SIZE":"LARGE","REF_FRAME":"TEME","CLASSIFICATION_TYPE":"U","SITE":"AFETR","SEMIMAJOR_AXIS":"6925.354","FILE":"3617955","TLE_LINE1":"1 47918U 21021BL  22289.80426692  .00001729  00000-0  13493-3 0  9997","NORAD_CAT_ID":"47918","ELEMENT_SET_NO":"999","MEAN_ELEMENT_THEORY":"SGP4","ECCENTRICITY":"0.00017950","APOAPSIS":"548.462","OBJECT_TYPE":"PAYLOAD","PERIAPSIS":"545.976","EPHEMERIS_TYPE":"0","TLE_LINE2":"2 47918  53.0551  77.6914 0001795 101.9044 258.2147 15.06398128 89318","DECAY_DATE":null,"LAUNCH_DATE":"2021-03-14","MEAN_MOTION_DOT":"0.00001729","MEAN_MOTION":"15.06398128","OBJECT_NAME":"STARLINK-2398","GP_ID":"215345524","PERIOD":"95.592","INCLINATION":"53.0551","ARG_OF_PERICENTER":"101.9044","BSTAR":"0.00013493000000","EPOCH":"2022-10-16T19:18:08.661888","RA_OF_ASC_NODE":"77.6914"},{"RCS_SIZE":"LARGE","REF_FRAME":"TEME","MEAN_ANOMALY":"276.3214","MEAN_MOTION_DDOT":"0.0000000000000","TIME_SYSTEM":"UTC","OBJECT_ID":"2021-021BM","CENTER_NAME":"EARTH","COUNTRY_CODE":"US","REV_AT_EPOCH":"8913","APOAPSIS":"548.191","ECCENTRICITY":"0.00014050","MEAN_ELEMENT_THEORY":"SGP4","NORAD_CAT_ID":"47919","ELEMENT_SET_NO":"999","FILE":"3617955","TLE_LINE1":"1 47919U 21021BM  22289.65590459 -.00002412  00000-0 -14309-3 0  9993","SITE":"AFETR","SEMIMAJOR_AXIS":"6925.353","CLASSIFICATION_TYPE":"U","MEAN_MOTION":"15.06398440","MEAN_MOTION_DOT":"-0.00002412","LAUNCH_DATE":"2021-03-14","DECAY_DATE":null,"TLE_LINE2":"2 47919  53.0560  88.3487 0001405  83.7935 276.3214 15.06398440 89130","EPHEMERIS_TYPE":"0","PERIAPSIS":"546.245","OBJECT_TYPE":"PAYLOAD","RA_OF_ASC_NODE":"88.3487","EPOCH":"2022-10-16T15:44:30.156576","BSTAR":"-0.00014309000000","ARG_OF_PERICENTER":"83.7935","INCLINATION":"53.0560","PERIOD":"95.592","OBJECT_NAME":"STARLINK-2405","GP_ID":"215346775"},{"TLE_LINE2":"2 47977  53.0538 132.4245 0001386 111.4283 248.6854 15.06391659 87310","EPHEMERIS_TYPE":"0","PERIAPSIS":"546.279","OBJECT_TYPE":"PAYLOAD","MEAN_MOTION":"15.06391659","MEAN_MOTION_DOT":"0.00000281","LAUNCH_DATE":"2021-03-24","DECAY_DATE":null,"INCLINATION":"53.0538","PERIOD":"95.593","OBJECT_NAME":"STARLINK-2087","GP_ID":"215313800","RA_OF_ASC_NODE":"132.4245","EPOCH":"2022-10-16T20:43:43.476096","BSTAR":"0.00003775000000","ARG_OF_PERICENTER":"111.4283","CENTER_NAME":"EARTH","COUNTRY_CODE":"US","REV_AT_EPOCH":"8731","REF_FRAME":"TEME","RCS_SIZE":"LARGE","MEAN_MOTION_DDOT":"0.0000000000000","MEAN_ANOMALY":"248.6854","TIME_SYSTEM":"UTC","OBJECT_ID":"2021-024A","NORAD_CAT_ID":"47977","ELEMENT_SET_NO":"999","TLE_LINE1":"1 47977U 21024A   22289.86369764  .00000281  00000-0  37750-4 0  9992","FILE":"3617476","SITE":"AFETR","SEMIMAJOR_AXIS":"6925.374","CLASSIFICATION_TYPE":"U","ECCENTRICITY":"0.00013860","APOAPSIS":"548.199","MEAN_ELEMENT_THEORY":"SGP4"},{"TLE_LINE2":"2 47978  53.0535 142.6126 0001386 107.3487 252.7654 15.06391621 87154","EPHEMERIS_TYPE":"0","OBJECT_TYPE":"PAYLOAD","PERIAPSIS":"546.279","MEAN_MOTION":"15.06391621","MEAN_MOTION_DOT":"-0.00003042","LAUNCH_DATE":"2021-03-24","DECAY_DATE":null,"INCLINATION":"53.0535","PERIOD":"95.593","OBJECT_NAME":"STARLINK-1647","GP_ID":"215313822","RA_OF_ASC_NODE":"142.6126","EPOCH":"2022-10-16T19:38:43.504512","BSTAR":"-0.00018545000000","ARG_OF_PERICENTER":"107.3487","CENTER_NAME":"EARTH","COUNTRY_CODE":"US","REV_AT_EPOCH":"8715","RCS_SIZE":"LARGE","REF_FRAME":"TEME","MEAN_ANOMALY":"252.7654","MEAN_MOTION_DDOT":"0.0000000000000","TIME_SYSTEM":"UTC","OBJECT_ID":"2021-024B","ELEMENT_SET_NO":"999","NORAD_CAT_ID":"47978","FILE":"3617478","TLE_LINE1":"1 47978U 21024B   22289.81855908 -.00003042  00000-0 -18545-3 0  9998","SITE":"AFETR","SEMIMAJOR_AXIS":"6925.374","CLASSIFICATION_TYPE":"U","APOAPSIS":"548.199","ECCENTRICITY":"0.00013860","MEAN_ELEMENT_THEORY":"SGP4"},{"SITE":"AFETR","SEMIMAJOR_AXIS":"6925.358","CLASSIFICATION_TYPE":"U","NORAD_CAT_ID":"47979","ELEMENT_SET_NO":"999","FILE":"3617479","TLE_LINE1":"1 47979U 21024C   22289.82269507  .00000838  00000-0  75134-4 0  9990","MEAN_ELEMENT_THEORY":"SGP4","ECCENTRICITY":"0.00016950","APOAPSIS":"548.397","COUNTRY_CODE":"US","REV_AT_EPOCH":"8807","CENTER_NAME":"EARTH","TIME_SYSTEM":"UTC","OBJECT_ID":"2021-024C","RCS_SIZE":"LARGE","REF_FRAME":"TEME","MEAN_ANOMALY":"307.8349","MEAN_MOTION_DDOT":"0.0000000000000","PERIOD":"95.592","GP_ID":"215313831","OBJECT_NAME":"STARLINK-2325","INCLINATION":"53.0559","EPOCH":"2022-10-16T19:44:40.854048","BSTAR":"0.00007513400000","ARG_OF_PERICENTER":"52.2794","RA_OF_ASC_NODE":"77.6030","EPHEMERIS_TYPE":"0","PERIAPSIS":"546.049","OBJECT_TYPE":"PAYLOAD","TLE_LINE2":"2 47979  53.0559  77.6030 0001695  52.2794 307.8349 15.06396968 88078","LAUNCH_DATE":"2021-03-24","DECAY_DATE":null,"MEAN_MOTION":"15.06396968","MEAN_MOTION_DOT":"0.00000838"},{"MEAN_MOTION_DOT":"0.00000601","MEAN_MOTION":"15.06398596","DECAY_DATE":null,"LAUNCH_DATE":"2021-03-24","TLE_LINE2":"2 47980  53.0563  58.2387 0001625  65.3239 294.7919 15.06398596 88859","PERIAPSIS":"546.092","OBJECT_TYPE":"PAYLOAD","EPHEMERIS_TYPE":"0","RA_OF_ASC_NODE":"58.2387","ARG_OF_PERICENTER":"65.3239","BSTAR":"0.00005925400000","EPOCH":"2022-10-16T17:02:48.986016","INCLINATION":"53.0563","OBJECT_NAME":"STARLINK-2312","GP_ID":"215346781","PERIOD":"95.592","MEAN_ANOMALY":"294.7919","MEAN_MOTION_DDOT":"0.0000000000000","REF_FRAME":"TEME","RCS_SIZE":"LARGE","OBJECT_ID":"2021-024D","TIME_SYSTEM":"UTC","CENTER_NAME":"EARTH","REV_AT_EPOCH":"8885","COUNTRY_CODE":"US","ECCENTRICITY":"0.00016250","APOAPSIS":"548.343","MEAN_ELEMENT_THEORY":"SGP4","FILE":"3617955","TLE_LINE1":"1 47980U 21024D   22289.71028919  .00000601  00000-0  59254-4 0  9993","NORAD_CAT_ID":"47980","ELEMENT_SET_NO":"999","CLASSIFICATION_TYPE":"U","SITE":"AFETR","SEMIMAJOR_AXIS":"6925.353"},{"MEAN_MOTION":"15.06397200","MEAN_MOTION_DOT":"-0.00000383","LAUNCH_DATE":"2021-03-24","DECAY_DATE":null,"TLE_LINE2":"2 47981  53.0538 142.6589 0001290 114.1465 245.9659 15.06397200 87686","EPHEMERIS_TYPE":"0","OBJECT_TYPE":"PAYLOAD","PERIAPSIS":"546.329","RA_OF_ASC_NODE":"142.6589","EPOCH":"2022-10-16T19:22:47.439264","BSTAR":"-0.00000679240000","ARG_OF_PERICENTER":"114.1465","INCLINATION":"53.0538","PERIOD":"95.592","OBJECT_NAME":"STARLINK-2303","GP_ID":"215347031","REF_FRAME":"TEME","RCS_SIZE":"LARGE","MEAN_MOTION_DDOT":"0.0000000000000","MEAN_ANOMALY":"245.9659","TIME_SYSTEM":"UTC","OBJECT_ID":"2021-024E","CENTER_NAME":"EARTH","COUNTRY_CODE":"US","REV_AT_EPOCH":"8768","APOAPSIS":"548.116","ECCENTRICITY":"0.00012900","MEAN_ELEMENT_THEORY":"SGP4","ELEMENT_SET_NO":"999","NORAD_CAT_ID":"47981","TLE_LINE1":"1 47981U 21024E   22289.80749351 -.00000383  00000-0 -67924-5 0  9997","FILE":"3617955","SITE":"AFETR","SEMIMAJOR_AXIS":"6925.357","CLASSIFICATION_TYPE":"U"},{"REF_FRAME":"TEME","RCS_SIZE":"LARGE","MEAN_MOTION_DDOT":"0.0000000000000","MEAN_ANOMALY":"291.6892","TIME_SYSTEM":"UTC","OBJECT_ID":"2021-024F","CENTER_NAME":"EARTH","COUNTRY_CODE":"US","REV_AT_EPOCH":"8812","ECCENTRICITY":"0.00013840","APOAPSIS":"548.161","MEAN_ELEMENT_THEORY":"SGP4","ELEMENT_SET_NO":"999","NORAD_CAT_ID":"47982","TLE_LINE1":"1 47982U 21024F   22289.78813658  .00001287  00000-0  10524-3 0  9991","FILE":"3617479","SEMIMAJOR_AXIS":"6925.338","SITE":"AFETR","CLASSIFICATION_TYPE":"U","MEAN_MOTION":"15.06403485","MEAN_MOTION_DOT":"0.00001287","LAUNCH_DATE":"2021-03-24","DECAY_DATE":null,"TLE_LINE2":"2 47982  53.0557  72.7515 0001384  68.4244 291.6892 15.06403485 88120","EPHEMERIS_TYPE":"0","OBJECT_TYPE":"PAYLOAD","PERIAPSIS":"546.244","RA_OF_ASC_NODE":"72.7515","EPOCH":"2022-10-16T18:54:55.000512","ARG_OF_PERICENTER":"68.4244","BSTAR":"0.00010524000000","INCLINATION":"53.0557","PERIOD":"95.592","GP_ID":"215314331","OBJECT_NAME":"STARLINK-2317"}];
